CCSDS_OMM_VERS = 2.0
CREATION_DATE  = 
ORIGINATOR     = 

OBJECT_NAME    = UNKNOWN
OBJECT_ID      = 
CENTER_NAME    = EARTH
REF_FRAME      = TEME
TIME_SYSTEM    = UTC
MEAN_ELEMENT_THEORY = SGP/SGP4

EPOCH          = 2026-01-13T02:37:39.616320
MEAN_MOTION    = 13.83470755
ECCENTRICITY   = .0564598
INCLINATION    = 65.7723
RA_OF_ASC_NODE = 310.1397
ARG_OF_PERICENTER = 292.7001
MEAN_ANOMALY   = 61.5331

EPHEMERIS_TYPE = 0
CLASSIFICATION_TYPE = U
NORAD_CAT_ID   = 81052
ELEMENT_SET_NO = 999
REV_AT_EPOCH   = 60465
BSTAR          = .12007E-2
MEAN_MOTION_DOT = .455E-4
MEAN_MOTION_DDOT = 0

CCSDS_OMM_VERS = 2.0
CREATION_DATE  = 
ORIGINATOR     = 

OBJECT_NAME    = UNKNOWN
OBJECT_ID      = 
CENTER_NAME    = EARTH
REF_FRAME      = TEME
TIME_SYSTEM    = UTC
MEAN_ELEMENT_THEORY = SGP/SGP4

EPOCH          = 2026-01-09T11:41:55.818240
MEAN_MOTION    = 13.60735301
ECCENTRICITY   = .0067744
INCLINATION    = 100.3836
RA_OF_ASC_NODE = 277.2821
ARG_OF_PERICENTER = 336.4964
MEAN_ANOMALY   = 23.3083

EPHEMERIS_TYPE = 0
CLASSIFICATION_TYPE = U
NORAD_CAT_ID   = 81069
ELEMENT_SET_NO = 999
REV_AT_EPOCH   = 51970
BSTAR          = .49437E-2
MEAN_MOTION_DOT = .3741E-4
MEAN_MOTION_DDOT = 0

CCSDS_OMM_VERS = 2.0
CREATION_DATE  = 
ORIGINATOR     = 

OBJECT_NAME    = UNKNOWN
OBJECT_ID      = 
CENTER_NAME    = EARTH
REF_FRAME      = TEME
TIME_SYSTEM    = UTC
MEAN_ELEMENT_THEORY = SGP/SGP4

EPOCH          = 2026-01-14T09:35:06.216000
MEAN_MOTION    = 7.56465097
ECCENTRICITY   = .3854156
INCLINATION    = 62.8957
RA_OF_ASC_NODE = 348.5982
ARG_OF_PERICENTER = 358.4869
MEAN_ANOMALY   = 0.6535

EPHEMERIS_TYPE = 0
CLASSIFICATION_TYPE = U
NORAD_CAT_ID   = 81111
ELEMENT_SET_NO = 999
REV_AT_EPOCH   = 27441
BSTAR          = .31943E-2
MEAN_MOTION_DOT = .14875E-3
MEAN_MOTION_DDOT = 0

CCSDS_OMM_VERS = 2.0
CREATION_DATE  = 
ORIGINATOR     = 

OBJECT_NAME    = UNKNOWN
OBJECT_ID      = 
CENTER_NAME    = EARTH
REF_FRAME      = TEME
TIME_SYSTEM    = UTC
MEAN_ELEMENT_THEORY = SGP/SGP4

EPOCH          = 2026-01-06T12:33:14.941440
MEAN_MOTION    = 13.81655968
ECCENTRICITY   = .0001693
INCLINATION    = 99.9706
RA_OF_ASC_NODE = 94.5272
ARG_OF_PERICENTER = 5.3365
MEAN_ANOMALY   = 354.7804

EPHEMERIS_TYPE = 0
CLASSIFICATION_TYPE = U
NORAD_CAT_ID   = 81123
ELEMENT_SET_NO = 999
REV_AT_EPOCH   = 60970
BSTAR          = .12737E-2
MEAN_MOTION_DOT = .1311E-4
MEAN_MOTION_DDOT = 0

CCSDS_OMM_VERS = 2.0
CREATION_DATE  = 
ORIGINATOR     = 

OBJECT_NAME    = UNKNOWN
OBJECT_ID      = 
CENTER_NAME    = EARTH
REF_FRAME      = TEME
TIME_SYSTEM    = UTC
MEAN_ELEMENT_THEORY = SGP/SGP4

EPOCH          = 2026-01-14T05:03:01.682496
MEAN_MOTION    = 12.92991393
ECCENTRICITY   = .0024626
INCLINATION    = 90.2482
RA_OF_ASC_NODE = 4.7546
ARG_OF_PERICENTER = 307.1147
MEAN_ANOMALY   = 52.7721

EPHEMERIS_TYPE = 0
CLASSIFICATION_TYPE = U
NORAD_CAT_ID   = 81134
ELEMENT_SET_NO = 999
REV_AT_EPOCH   = 46680
BSTAR          = .53921E-3
MEAN_MOTION_DOT = .154E-5
MEAN_MOTION_DDOT = 0

CCSDS_OMM_VERS = 2.0
CREATION_DATE  = 
ORIGINATOR     = 

OBJECT_NAME    = UNKNOWN
OBJECT_ID      = 
CENTER_NAME    = EARTH
REF_FRAME      = TEME
TIME_SYSTEM    = UTC
MEAN_ELEMENT_THEORY = SGP/SGP4

EPOCH          = 2026-01-09T09:37:41.731680
MEAN_MOTION    = 13.75679970
ECCENTRICITY   = .0062882
INCLINATION    = 100.4172
RA_OF_ASC_NODE = 218.9695
ARG_OF_PERICENTER = 213.9626
MEAN_ANOMALY   = 145.7487

EPHEMERIS_TYPE = 0
CLASSIFICATION_TYPE = U
NORAD_CAT_ID   = 81161
ELEMENT_SET_NO = 999
REV_AT_EPOCH   = 55993
BSTAR          = .72986E-3
MEAN_MOTION_DOT = .663E-5
MEAN_MOTION_DDOT = 0

CCSDS_OMM_VERS = 2.0
CREATION_DATE  = 
ORIGINATOR     = 

OBJECT_NAME    = UNKNOWN
OBJECT_ID      = 
CENTER_NAME    = EARTH
REF_FRAME      = TEME
TIME_SYSTEM    = UTC
MEAN_ELEMENT_THEORY = SGP/SGP4

EPOCH          = 2026-01-12T14:59:01.202208
MEAN_MOTION    = 13.81815802
ECCENTRICITY   = .0022124
INCLINATION    = 82.9274
RA_OF_ASC_NODE = 342.9408
ARG_OF_PERICENTER = 125.2231
MEAN_ANOMALY   = 235.1004

EPHEMERIS_TYPE = 0
CLASSIFICATION_TYPE = U
NORAD_CAT_ID   = 81219
ELEMENT_SET_NO = 999
REV_AT_EPOCH   = 61178
BSTAR          = .4172E-3
MEAN_MOTION_DOT = .463E-5
MEAN_MOTION_DDOT = 0

CCSDS_OMM_VERS = 2.0
CREATION_DATE  = 
ORIGINATOR     = 

OBJECT_NAME    = UNKNOWN
OBJECT_ID      = 
CENTER_NAME    = EARTH
REF_FRAME      = TEME
TIME_SYSTEM    = UTC
MEAN_ELEMENT_THEORY = SGP/SGP4

EPOCH          = 2026-01-11T19:15:00.877536
MEAN_MOTION    = 14.41237342
ECCENTRICITY   = .0063894
INCLINATION    = 70.5189
RA_OF_ASC_NODE = 209.2525
ARG_OF_PERICENTER = 316.4844
MEAN_ANOMALY   = 43.1256

EPHEMERIS_TYPE = 0
CLASSIFICATION_TYPE = U
NORAD_CAT_ID   = 81228
ELEMENT_SET_NO = 999
REV_AT_EPOCH   = 63042
BSTAR          = .17335E-2
MEAN_MOTION_DOT = .5689E-4
MEAN_MOTION_DDOT = 0

CCSDS_OMM_VERS = 2.0
CREATION_DATE  = 
ORIGINATOR     = 

OBJECT_NAME    = UNKNOWN
OBJECT_ID      = 
CENTER_NAME    = EARTH
REF_FRAME      = TEME
TIME_SYSTEM    = UTC
MEAN_ELEMENT_THEORY = SGP/SGP4

EPOCH          = 2026-01-13T03:39:09.679968
MEAN_MOTION    = 14.01755390
ECCENTRICITY   = .0070663
INCLINATION    = 100.3862
RA_OF_ASC_NODE = 84.5465
ARG_OF_PERICENTER = 348.0666
MEAN_ANOMALY   = 11.8817

EPHEMERIS_TYPE = 0
CLASSIFICATION_TYPE = U
NORAD_CAT_ID   = 81254
ELEMENT_SET_NO = 999
REV_AT_EPOCH   = 61729
BSTAR          = .17739E-2
MEAN_MOTION_DOT = .2698E-4
MEAN_MOTION_DDOT = 0

CCSDS_OMM_VERS = 2.0
CREATION_DATE  = 
ORIGINATOR     = 

OBJECT_NAME    = UNKNOWN
OBJECT_ID      = 
CENTER_NAME    = EARTH
REF_FRAME      = TEME
TIME_SYSTEM    = UTC
MEAN_ELEMENT_THEORY = SGP/SGP4

EPOCH          = 2026-01-14T14:40:25.236480
MEAN_MOTION    = 14.20025931
ECCENTRICITY   = .0206052
INCLINATION    = 98.1255
RA_OF_ASC_NODE = 76.3966
ARG_OF_PERICENTER = 288.7615
MEAN_ANOMALY   = 69.1307

EPHEMERIS_TYPE = 0
CLASSIFICATION_TYPE = U
NORAD_CAT_ID   = 81279
ELEMENT_SET_NO = 999
REV_AT_EPOCH   = 46726
BSTAR          = .30846E-3
MEAN_MOTION_DOT = .769E-5
MEAN_MOTION_DDOT = 0

CCSDS_OMM_VERS = 2.0
CREATION_DATE  = 
ORIGINATOR     = 

OBJECT_NAME    = UNKNOWN
OBJECT_ID      = 
CENTER_NAME    = EARTH
REF_FRAME      = TEME
TIME_SYSTEM    = UTC
MEAN_ELEMENT_THEORY = SGP/SGP4

EPOCH          = 2026-01-13T07:56:58.342848
MEAN_MOTION    = 13.76724909
ECCENTRICITY   = .0092002
INCLINATION    = 66.7560
RA_OF_ASC_NODE = 220.4150
ARG_OF_PERICENTER = 212.1834
MEAN_ANOMALY   = 324.2470

EPHEMERIS_TYPE = 0
CLASSIFICATION_TYPE = U
NORAD_CAT_ID   = 81301
ELEMENT_SET_NO = 999
REV_AT_EPOCH   = 61070
BSTAR          = .2296E-3
MEAN_MOTION_DOT = .159E-5
MEAN_MOTION_DDOT = 0

CCSDS_OMM_VERS = 2.0
CREATION_DATE  = 
ORIGINATOR     = 

OBJECT_NAME    = UNKNOWN
OBJECT_ID      = 
CENTER_NAME    = EARTH
REF_FRAME      = TEME
TIME_SYSTEM    = UTC
MEAN_ELEMENT_THEORY = SGP/SGP4

EPOCH          = 2026-01-08T09:45:51.079680
MEAN_MOTION    = 14.56584907
ECCENTRICITY   = .0132034
INCLINATION    = 98.7287
RA_OF_ASC_NODE = 71.9353
ARG_OF_PERICENTER = 43.5076
MEAN_ANOMALY   = 20.2843

EPHEMERIS_TYPE = 0
CLASSIFICATION_TYPE = U
NORAD_CAT_ID   = 81311
ELEMENT_SET_NO = 999
REV_AT_EPOCH   = 64347
BSTAR          = .14384E-3
MEAN_MOTION_DOT = .664E-5
MEAN_MOTION_DDOT = 0

