UNKNOWN                 
1 81052U          26013.10948630  .00004550  00000+0  12007-2 0  9994
2 81052  65.7723 310.1397 0564598 292.7001  61.5331 13.83470755604653
UNKNOWN                 
1 81069U          26009.48745160  .00003741  00000+0  49437-2 0  9999
2 81069 100.3836 277.2821 0067744 336.4964  23.3083 13.60735301519709
UNKNOWN                 
1 81111U          26014.39937750  .00014875  00000+0  31943-2 0  9994
2 81111  62.8957 348.5982 3854156 358.4869   0.6535  7.56465097274411
UNKNOWN                 
1 81123U          26006.52308960  .00001311  00000+0  12737-2 0  9999
2 81123  99.9706  94.5272 0001693   5.3365 354.7804 13.81655968609702
UNKNOWN                 
1 81134U          26014.21043614  .00000154  00000+0  53921-3 0  9993
2 81134  90.2482   4.7546 0024626 307.1147  52.7721 12.92991393466809
UNKNOWN                 
1 81161U          26009.40117745  .00000663  00000+0  72986-3 0  9992
2 81161 100.4172 218.9695 0062882 213.9626 145.7487 13.75679970559930
UNKNOWN                 
1 81219U          26012.62431947  .00000463  00000+0  41720-3 0  9997
2 81219  82.9274 342.9408 0022124 125.2231 235.1004 13.81815802611787
UNKNOWN                 
1 81228U          26011.80209349  .00005689  00000+0  17335-2 0  9994
2 81228  70.5189 209.2525 0063894 316.4844  43.1256 14.41237342630425
UNKNOWN                 
1 81254U          26013.15219537  .00002698  00000+0  17739-2 0  9998
2 81254 100.3862  84.5465 0070663 348.0666  11.8817 14.01755390617295
UNKNOWN                 
1 81279U          26014.61140320  .00000769  00000+0  30846-3 0  9992
2 81279  98.1255  76.3966 0206052 288.7615  69.1307 14.20025931467266
UNKNOWN                 
1 81301U          26013.33123082  .00000159  00000+0  22960-3 0  9993
2 81301  66.7560 220.4150 0092002 212.1834 324.2470 13.76724909610707
UNKNOWN                 
1 81311U          26008.40684120  .00000664  00000+0  14384-3 0  9993
2 81311  98.7287  71.9353 0132034  43.5076  20.2843 14.56584907643475
